NORAD_CAT_ID,OBJECT_NAME,OBJECT_TYPE,EPOCH,MEAN_MOTION,ECCENTRICITY,INCLINATION,RA_OF_ASC_NODE,ARG_OF_PERICENTER,MEAN_ANOMALY,BSTAR,MEAN_MOTION_DOT,MEAN_MOTION_DDOT,TLE_LINE0,TLE_LINE1,TLE_LINE2,SEMIMAJOR_AXIS,PERIOD,APOGEE,PERIGEE,DECAYED
51813.0,STARLINK-3552,PAYLOAD,2022-03-10 20:00:01,15.73219563,0.0001046,53.2185,78.2799,70.592,152.1506,0.00033744,0.00047042,0.0,0 STARLINK-3552,1 51813U 22017AX  22069.83334491  .00047042  00000-0  33744-3 0  9995,2 51813  53.2185  78.2799 0001046  70.5920 152.1506 15.73219563  3308,6727.839,91.532,350.408,349.001,0.0
51813.0,STARLINK-3552,PAYLOAD,2022-03-10 22:00:01,15.73235885,0.0001046,53.2183,77.8672,72.8684,262.1789,0.00011577,0.00015683,0.0,0 STARLINK-3552,1 51813U 22017AX  22069.91668981  .00015683  00000-0  11577-3 0  9994,2 51813  53.2183  77.8672 0001046  72.8684 262.1789 15.73235885  2593,6727.793000000002,91.531,350.362,348.954,0.0
51813.0,STARLINK-3552,PAYLOAD,2022-03-11 12:00:00,15.73242584,0.0001149,53.2186,74.983,61.4671,339.2502,0.00016064,0.00022025,0.0,0 STARLINK-3552,1 51813U 22017AX  22070.50001157  .00022025  00000-0  16064-3 0  9991,2 51813  53.2186  74.9830 0001149  61.4671 339.2502 15.73242584  3419,6727.774,91.531,350.412,348.866,0.0
51813.0,STARLINK-3552,PAYLOAD,2022-03-11 20:00:01,15.73241099,9e-05,53.2189,73.3314,69.7217,59.9805,-6.1705e-06,-1.487e-05,0.0,0 STARLINK-3552,1 51813U 22017AX  22070.83334491 -.00001487  00000-0 -61705-5 0  9992,2 51813  53.2189  73.3314 0000900  69.7217  59.9805 15.73241099  3460,6727.778,91.531,350.249,349.038,0.0
51813.0,STARLINK-3552,PAYLOAD,2022-03-11 22:00:00,15.73235286,9.3e-05,53.2189,72.9186,71.9905,169.9595,3.6935e-05,4.574e-05,0.0,0 STARLINK-3552,1 51813U 22017AX  22070.91667824  .00004574  00000-0  36935-4 0  9994,2 51813  53.2189  72.9186 0000930  71.9905 169.9595 15.73235286  2754,6727.795,91.531,350.285,349.034,0.0
51813.0,STARLINK-3552,PAYLOAD,2022-03-12 04:00:00,15.7325538,0.000103,53.2191,71.6829,66.5615,152.1005,-0.00089638,-0.00124861,0.0,0 STARLINK-3552,1 51813U 22017AX  22071.16667824 -.00124861  00000-0 -89638-3 0  9993,2 51813  53.2191  71.6829 0001030  66.5615 152.1005 15.73255380  3519,6727.736999999999,91.53,350.295,348.909,0.0
51813.0,STARLINK-3552,PAYLOAD,2022-03-12 12:00:00,15.73347209,0.0001025,53.2179,70.0308,50.9397,256.6338,-0.002914,-0.00393485,0.0,0 STARLINK-3552,1 51813U 22017AX  22071.50001157 -.00393485  00000-0 -29140-2 0  9993,2 51813  53.2179  70.0308 0001025  50.9397 256.6338 15.73347209  3575,6727.476,91.525,350.03,348.651,0.0
51813.0,STARLINK-3552,PAYLOAD,2022-03-12 14:00:01,15.73480986,0.0001243,53.2176,69.6169,52.4828,7.3006,-0.0063719,-0.00822014,0.0,0 STARLINK-3552,1 51813U 22017AX  22071.58334491 -.00822014  00000-0 -63719-2 0  9996,2 51813  53.2176  69.6169 0001243  52.4828   7.3006 15.73480986  2863,6727.094,91.517,349.795,348.12300000000016,0.0
51813.0,STARLINK-3552,PAYLOAD,2022-03-12 20:00:01,15.73131347,0.0001007,53.2185,68.3829,77.3914,319.1415,0.00079422,0.00112009,0.0,0 STARLINK-3552,1 51813U 22017AX  22071.83334491  .00112009  00000-0  79422-3 0  9997,2 51813  53.2185  68.3829 0001007  77.3914 319.1415 15.73131347  3629,6728.090999999999,91.537,350.6330000000001,349.278,0.0
51813.0,STARLINK-3552,PAYLOAD,2022-03-12 22:00:00,15.73161226,0.0001028,53.2184,67.9705,80.2676,68.4778,0.00055449,0.00077792,0.0,0 STARLINK-3552,1 51813U 22017AX  22071.91667824  .00077792  00000-0  55449-3 0  9997,2 51813  53.2184  67.9705 0001028  80.2676  68.4778 15.73161226  2913,6728.005999999999,91.535,350.56199999999984,349.17900000000014,0.0
51813.0,STARLINK-3552,PAYLOAD,2022-03-13 04:00:00,15.73234741,0.0001122,53.2186,66.7349,72.5189,52.8917,-0.00078313,-0.0010927,0.0,0 STARLINK-3552,1 51813U 22017AX  22072.16667824 -.00109270  00000-0 -78313-3 0  9999,2 51813  53.2186  66.7349 0001122  72.5189  52.8917 15.73234741  3673,6727.795999999999,91.531,350.416,348.906,0.0
51813.0,STARLINK-3552,PAYLOAD,2022-03-13 14:00:01,15.73146066,0.0001019,53.2186,64.6734,65.6327,260.9019,0.00011979,0.00016186,0.0,0 STARLINK-3552,1 51813U 22017AX  22072.58334491  .00016186  00000-0  11979-3 0  9992,2 51813  53.2186  64.6734 0001019  65.6327 260.9019 15.73146066  3015,6728.049,91.536,350.6,349.228,0.0
51813.0,STARLINK-3552,PAYLOAD,2022-03-13 20:00:01,15.73040416,0.0001530999999999,53.2177,63.4279,81.6074,221.6963,-0.00042089,-0.00058878,0.0,0 STARLINK-3552,1 51813U 22017AX  22072.83334491 -.00058878  00000-0 -42089-3 0  9992,2 51813  53.2177  63.4279 0001531  81.6074 221.6963 15.73040416  3780,6728.35,91.542,351.245,349.185,0.0
51813.0,STARLINK-3552,PAYLOAD,2022-03-13 22:00:01,15.72778181,0.0001382,53.2176,63.014,86.1561,329.4766,0.0036166,0.00530769,0.0,0 STARLINK-3552,1 51813U 22017AX  22072.91668981  .00530769  00000-0  36166-2 0  9995,2 51813  53.2176  63.0140 0001382  86.1561 329.4766 15.72778181  3073,6729.098000000001,91.558,351.89300000000014,350.033,0.0
51813.0,STARLINK-3552,PAYLOAD,2022-03-14 04:00:00,15.73240678,0.0001213,53.219,61.7864,73.8318,318.3875,0.00021787,0.00030119,0.0,0 STARLINK-3552,1 51813U 22017AX  22073.16667824  .00030119  00000-0  21787-3 0  9996,2 51813  53.2190  61.7864 0001213  73.8318 318.3875 15.73240678  3831,6727.779,91.531,350.46,348.82800000000015,0.0
51813.0,STARLINK-3552,PAYLOAD,2022-03-14 14:00:01,15.73271113,0.0001261,53.2183,59.7243,73.7637,159.7831,0.00027675,0.00038516,0.0,0 STARLINK-3552,1 51813U 22017AX  22073.58335648  .00038516  00000-0  27675-3 0  9999,2 51813  53.2183  59.7243 0001261  73.7637 159.7831 15.73271113  3171,6727.691999999999,91.529,350.406,348.709,0.0
51813.0,STARLINK-3552,PAYLOAD,2022-03-14 20:00:01,15.73284007,0.0001116,53.2184,58.4858,86.1171,124.1114,-5.1107e-05,-7.812e-05,0.0,0 STARLINK-3552,1 51813U 22017AX  22073.83334491 -.00007812  00000-0 -51107-4 0  9997,2 51813  53.2184  58.4858 0001116  86.1171 124.1114 15.73284007  3211,6727.656,91.528,350.271,348.77,0.0
51813.0,STARLINK-3552,PAYLOAD,2022-03-14 22:00:00,15.733103,0.0001083,53.2186,58.0733,86.8079,235.6706,-0.00053566,-0.00075477,0.0,0 STARLINK-3552,1 51813U 22017AX  22073.91667824 -.00075477  00000-0 -53566-3 0  9997,2 51813  53.2186  58.0733 0001083  86.8079 235.6706 15.73310300  3950,6727.581,91.527,350.1740000000001,348.717,0.0
51813.0,STARLINK-3552,PAYLOAD,2022-03-15 00:00:00,15.7331991,0.0001064,53.2188,57.6614,85.4188,349.3161,-0.00088197,-0.00123228,0.0,0 STARLINK-3552,1 51813U 22017AX  22074.00001157 -.00123228  00000-0 -88197-3 0  9995,2 51813  53.2188  57.6614 0001064  85.4188 349.3161 15.73319910  3965,6727.553000000001,91.526,350.134,348.70300000000015,0.0
51813.0,STARLINK-3552,PAYLOAD,2022-03-15 02:00:01,15.73315004,0.0001031,53.2188,57.2495,83.2235,103.7723,-0.001164,-0.00161666,0.0,0 STARLINK-3552,1 51813U 22017AX  22074.08334491 -.00161666  00000-0 -11640-2 0  9999,2 51813  53.2188  57.2495 0001031  83.2235 103.7723 15.73315004  3259,6727.566999999999,91.526,350.126,348.73900000000015,0.0
51813.0,STARLINK-3552,PAYLOAD,2022-03-15 20:00:01,15.72980363,8.25e-05,53.2189,53.5374,81.1455,35.8223,0.0010133,0.00142679,0.0,0 STARLINK-3552,1 51813U 22017AX  22074.83334491  .00142679  00000-0  10133-2 0  9999,2 51813  53.2189  53.5374 0000825  81.1455  35.8223 15.72980363  4094,6728.521,91.546,350.94199999999995,349.831,0.0
51813.0,STARLINK-3552,PAYLOAD,2022-03-15 22:00:00,15.72993575,9.22e-05,53.2191,53.1251,83.1598,145.98,0.0012095,0.00171106,0.0,0 STARLINK-3552,1 51813U 22017AX  22074.91667824  .00171106  00000-0  12095-2 0  9993,2 51813  53.2191  53.1251 0000922  83.1598 145.9800 15.72993575  3390,6728.484,91.545,350.969,349.728,0.0
51813.0,STARLINK-3552,PAYLOAD,2022-03-16 12:00:00,15.7316385,0.0001104,53.2187,50.2407,71.1546,223.3627,0.00027301,0.00037808,0.0,0 STARLINK-3552,1 51813U 22017AX  22075.50001157  .00037808  00000-0  27301-3 0  9997,2 51813  53.2187  50.2407 0001104  71.1546 223.3627 15.73163850  4192,6727.998000000001,91.535,350.606,349.12,0.0
51813.0,STARLINK-3552,PAYLOAD,2022-03-16 14:00:01,15.73179383,0.0001093,53.2188,49.8279,76.2143,330.5221,0.00014973,0.00020426,0.0,0 STARLINK-3552,1 51813U 22017AX  22075.58334491  .00020426  00000-0  14973-3 0  9994,2 51813  53.2188  49.8279 0001093  76.2143 330.5221 15.73179383  3491,6727.954000000002,91.534,350.55400000000014,349.084,0.0
51813.0,STARLINK-3552,PAYLOAD,2022-03-16 20:00:01,15.73165691,0.0001085,53.2189,48.5896,87.4371,295.9822,0.00069262,0.00097576,0.0,0 STARLINK-3552,1 51813U 22017AX  22075.83334491  .00097576  00000-0  69262-3 0  9993,2 51813  53.2189  48.5896 0001085  87.4371 295.9822 15.73165691  3534,6727.993,91.535,350.588,349.12800000000016,0.0
51813.0,STARLINK-3552,PAYLOAD,2022-03-17 14:00:01,15.73230877,0.0001315999999999,53.219,44.8794,83.2934,230.2789,3.6159e-05,4.464e-05,0.0,0 STARLINK-3552,1 51813U 22017AX  22076.58334491  .00004464  00000-0  36159-4 0  9990,2 51813  53.2190  44.8794 0001316  83.2934 230.2789 15.73230877  3654,6727.807,91.531,350.55800000000005,348.787,0.0
51813.0,STARLINK-3552,PAYLOAD,2022-03-17 22:00:00,15.73244789,0.0001406,53.2189,43.2289,90.5099,312.0253,0.00049729,0.00069889,0.0,0 STARLINK-3552,1 51813U 22017AX  22076.91667824  .00069889  00000-0  49729-3 0  9994,2 51813  53.2189  43.2289 0001406  90.5099 312.0253 15.73244789  3705,6727.767,91.531,350.57800000000015,348.68699999999984,0.0
51813.0,STARLINK-3552,PAYLOAD,2022-03-18 04:00:00,15.73307334,0.0001379,53.2183,41.9934,80.7708,298.4995,-0.00040504,-0.0005734,0.0,0 STARLINK-3552,1 51813U 22017AX  22077.16667824 -.00057340  00000-0 -40504-3 0  9995,2 51813  53.2183  41.9934 0001379  80.7708 298.4995 15.73307334  4468,6727.589,91.527,350.38199999999995,348.526,0.0
51813.0,STARLINK-3552,PAYLOAD,2022-03-18 14:00:01,15.73250164,0.000131,53.2175,39.9305,83.8085,136.7409,-0.00070336,-0.00098396,0.0,0 STARLINK-3552,1 51813U 22017AX  22077.58334491 -.00098396  00000-0 -70336-3 0  9994,2 51813  53.2175  39.9305 0001310  83.8085 136.7409 15.73250164  3725,6727.752,91.53,350.49800000000016,348.736,0.0
